CTC1_L_00476063-01
1 69455U 26398JT  26070.40837963  .00000000  00000+0  00000-0 0  9991
2 69455  88.0000 338.1818 0000000   0.0000 122.9752 15.38683946    11
CTC1_L_00476063-02
1 69456U 26326UQ  26070.40837963  .00000000  00000+0  00000-0 0  9993
2 69456  88.0000 338.1818 0000000   0.0000 155.7025 15.38683946    19
CTC1_L_00476063-03
1 69457U 24663RI  26070.40837963  .00000000  00000+0  00000-0 0  9996
2 69457  88.0000 338.1818 0000000   0.0000 188.4298 15.38683946    15
CTC1_L_00476063-04
1 69458U 22465R   26070.40837963  .00000000  00000+0  00000-0 0  9995
2 69458  88.0000 338.1818 0000000   0.0000 221.1570 15.38683946    14
CTC1_L_00476063-05
1 69459U 22333WZ  26070.40837963  .00000000  00000+0  00000-0 0  9990
2 69459  88.0000 338.1818 0000000   0.0000 253.8843 15.38683946    10
CTC1_L_00476063-06
1 69460U 25017ZR  26070.40837963  .00000000  00000+0  00000-0 0  9994
2 69460  88.0000 338.1818 0000000   0.0000 286.6116 15.38683946    19
CTC1_L_00476063-07
1 69461U 22641GF  26070.40837963  .00000000  00000+0  00000-0 0  9995
2 69461  88.0000 338.1818 0000000   0.0000 319.3388 15.38683946    15
CTC1_L_00476063-08
1 69462U 25672LR  26070.40837963  .00000000  00000+0  00000-0 0  9993
2 69462  88.0000 338.1818 0000000   0.0000 352.0661 15.38683946    14
CTC1_L_00476063-09
1 69463U 24300RP  26070.40837963  .00000000  00000+0  00000-0 0  9991
2 69463  88.0000 338.1818 0000000   0.0000  24.7934 15.38683946    11
CTC1_L_00476063-10
1 69464U 24889DC  26070.40837963  .00000000  00000+0  00000-0 0  9994
2 69464  88.0000 338.1818 0000000   0.0000  57.5207 15.38683946    19
CTC1_L_00476063-11
1 69465U 24779XV  26070.40837963  .00000000  00000+0  00000-0 0  9993
2 69465  88.0000 338.1818 0000000   0.0000  90.2479 15.38683946    15
CTC1_L_00476064-01
1 69466U 26698BN  26070.40837963  .00000000  00000+0  00000-0 0  9996
2 69466  88.0000 343.6364 0000000   0.0000 124.9587 15.38683946    18
CTC1_L_00476064-02
1 69467U 24881PP  26070.40837963  .00000000  00000+0  00000-0 0  9999
2 69467  88.0000 343.6364 0000000   0.0000 157.6860 15.38683946    16
CTC1_L_00476064-03
1 69468U 25853FO  26070.40837963  .00000000  00000+0  00000-0 0  9990
2 69468  88.0000 343.6364 0000000   0.0000 190.4132 15.38683946    14
CTC1_L_00476064-04
1 69469U 24113JL  26070.40837963  .00000000  00000+0  00000-0 0  9999
2 69469  88.0000 343.6364 0000000   0.0000 223.1405 15.38683946    12
CTC1_L_00476064-05
1 69470U 23074RC  26070.40837963  .00000000  00000+0  00000-0 0  9996
2 69470  88.0000 343.6364 0000000   0.0000 255.8678 15.38683946    18
CTC1_L_00476064-06
1 69471U 26388HJ  26070.40837963  .00000000  00000+0  00000-0 0  9998
2 69471  88.0000 343.6364 0000000   0.0000 288.5950 15.38683946    15
CTC1_L_00476064-07
1 69472U 26894WP  26070.40837963  .00000000  00000+0  00000-0 0  9991
2 69472  88.0000 343.6364 0000000   0.0000 321.3223 15.38683946    15
CTC1_L_00476064-08
1 69473U 26165PZ  26070.40837963  .00000000  00000+0  00000-0 0  9993
2 69473  88.0000 343.6364 0000000   0.0000 354.0496 15.38683946    11
CTC1_L_00476064-09
1 69474U 24680SN  26070.40837963  .00000000  00000+0  00000-0 0  9994
2 69474  88.0000 343.6364 0000000   0.0000  26.7769 15.38683946    18
CTC1_L_00476064-10
1 69475U 25486XM  26070.40837963  .00000000  00000+0  00000-0 0  9990
2 69475  88.0000 343.6364 0000000   0.0000  59.5041 15.38683946    16
CTC1_L_00476064-11
1 69476U 26308SV  26070.40837963  .00000000  00000+0  00000-0 0  9995
2 69476  88.0000 343.6364 0000000   0.0000  92.2314 15.38683946    14
CTC1_L_00476065-01
1 69477U 24486BN  26070.40837963  .00000000  00000+0  00000-0 0  9991
2 69477  88.0000 349.0909 0000000   0.0000 126.9421 15.38683946    14
CTC1_L_00476065-02
1 69478U 24254ZO  26070.40837963  .00000000  00000+0  00000-0 0  9995
2 69478  88.0000 349.0909 0000000   0.0000 159.6694 15.38683946    10
CTC1_L_00476065-03
1 69479U 25793UN  26070.40837963  .00000000  00000+0  00000-0 0  9995
2 69479  88.0000 349.0909 0000000   0.0000 192.3967 15.38683946    18
CTC1_L_00476065-04
1 69480U 26188NK  26070.40837963  .00000000  00000+0  00000-0 0  9996
2 69480  88.0000 349.0909 0000000   0.0000 225.1240 15.38683946    19
CTC1_L_00476065-05
1 69481U 22903SB  26070.40837963  .00000000  00000+0  00000-0 0  9998
2 69481  88.0000 349.0909 0000000   0.0000 257.8512 15.38683946    14
CTC1_L_00476065-06
1 69482U 22928NT  26070.40837963  .00000000  00000+0  00000-0 0  9996
2 69482  88.0000 349.0909 0000000   0.0000 290.5785 15.38683946    11
CTC1_L_00476065-07
1 69483U 25876NW  26070.40837963  .00000000  00000+0  00000-0 0  9992
2 69483  88.0000 349.0909 0000000   0.0000 323.3058 15.38683946    10
CTC1_L_00476065-08
1 69484U 24362CY  26070.40837963  .00000000  00000+0  00000-0 0  9992
2 69484  88.0000 349.0909 0000000   0.0000 356.0331 15.38683946    18
CTC1_L_00476065-09
1 69485U 23356FY  26070.40837963  .00000000  00000+0  00000-0 0  9995
2 69485  88.0000 349.0909 0000000   0.0000  28.7603 15.38683946    14
CTC1_L_00476065-10
1 69486U 26049GI  26070.40837963  .00000000  00000+0  00000-0 0  9998
2 69486  88.0000 349.0909 0000000   0.0000  61.4876 15.38683946    11
CTC1_L_00476065-11
1 69487U 26024CH  26070.40837963  .00000000  00000+0  00000-0 0  9992
2 69487  88.0000 349.0909 0000000   0.0000  94.2149 15.38683946    19
CTC1_L_00476066-01
1 69488U 23294RQ  26070.40837963  .00000000  00000+0  00000-0 0  9999
2 69488  88.0000 354.5455 0000000   0.0000 128.9256 15.38683946    11
CTC1_L_00476066-02
1 69489U 22452CD  26070.40837963  .00000000  00000+0  00000-0 0  9995
2 69489  88.0000 354.5455 0000000   0.0000 161.6529 15.38683946    19
CTC1_L_00476066-03
1 69490U 22671XG  26070.40837963  .00000000  00000+0  00000-0 0  9990
2 69490  88.0000 354.5455 0000000   0.0000 194.3802 15.38683946    18
CTC1_L_00476066-04
1 69491U 26142NH  26070.40837963  .00000000  00000+0  00000-0 0  9998
2 69491  88.0000 354.5455 0000000   0.0000 227.1074 15.38683946    15
CTC1_L_00476066-05
1 69492U 25366EU  26070.40837963  .00000000  00000+0  00000-0 0  9996
2 69492  88.0000 354.5455 0000000   0.0000 259.8347 15.38683946    11
CTC1_L_00476066-06
1 69493U 22900ZH  26070.40837963  .00000000  00000+0  00000-0 0  9998
2 69493  88.0000 354.5455 0000000   0.0000 292.5620 15.38683946    10
CTC1_L_00476066-07
1 69494U 26402BZ  26070.40837963  .00000000  00000+0  00000-0 0  9990
2 69494  88.0000 354.5455 0000000   0.0000 325.2893 15.38683946    17
CTC1_L_00476066-08
1 69495U 24221CX  26070.40837963  .00000000  00000+0  00000-0 0  9998
2 69495  88.0000 354.5455 0000000   0.0000 358.0165 15.38683946    14
CTC1_L_00476066-09
1 69496U 22700EB  26070.40837963  .00000000  00000+0  00000-0 0  9999
2 69496  88.0000 354.5455 0000000   0.0000  30.7438 15.38683946    12
CTC1_L_00476066-10
1 69497U 26613PU  26070.40837963  .00000000  00000+0  00000-0 0  9997
2 69497  88.0000 354.5455 0000000   0.0000  63.4711 15.38683946    10
CTC1_L_00476066-11
1 69498U 26898FJ  26070.40837963  .00000000  00000+0  00000-0 0  9993
2 69498  88.0000 354.5455 0000000   0.0000  96.1983 15.38683946    15
